NORAD_CAT_ID,OBJECT_NAME,OBJECT_TYPE,EPOCH,MEAN_MOTION,ECCENTRICITY,INCLINATION,RA_OF_ASC_NODE,ARG_OF_PERICENTER,MEAN_ANOMALY,BSTAR,MEAN_MOTION_DOT,MEAN_MOTION_DDOT,TLE_LINE0,TLE_LINE1,TLE_LINE2,SEMIMAJOR_AXIS,PERIOD,APOGEE,PERIGEE,DECAYED
49420.0,STARLINK-3110,PAYLOAD,2022-03-24 22:00:00,15.08826598,0.000207,53.2148,239.4381,40.9473,164.8782,0.0015292,0.00024124,0.0,0 STARLINK-3110,1 49420U 21104N   22083.91667824  .00024124  00000-0  15292-2 0  9999,2 49420  53.2148 239.4381 0002070  40.9473 164.8782 15.08826598  3607,6917.920999999999,95.438,541.2180000000002,538.354,0.0
49420.0,STARLINK-3110,PAYLOAD,2022-03-25 00:00:02,15.08849102,0.0002018,53.2146,239.0634,40.7114,258.0695,-0.0010275,-0.00016608,0.0,0 STARLINK-3110,1 49420U 21104N   22084.00002315 -.00016608  00000-0 -10275-2 0  9994,2 49420  53.2146 239.0634 0002018  40.7114 258.0695 15.08849102 21474,6917.853,95.437,541.114,538.322,0.0
49420.0,STARLINK-3110,PAYLOAD,2022-03-25 14:00:01,15.08862508,0.0001971,53.2147,236.4444,44.9576,184.0504,-0.0016879999999999,-0.00027069,0.0,0 STARLINK-3110,1 49420U 21104N   22084.58334491 -.00027069  00000-0 -16880-2 0  9991,2 49420  53.2147 236.4444 0001971  44.9576 184.0504 15.08862508  3584,6917.812,95.436,541.04,538.313,0.0
49420.0,STARLINK-3110,PAYLOAD,2022-03-25 22:00:01,15.08834729,0.0002062,53.2144,234.9488,39.0581,201.6248,0.00018702,2.689e-05,0.0,0 STARLINK-3110,1 49420U 21104N   22084.91668981  .00002689  00000-0  18702-3 0  9997,2 49420  53.2144 234.9488 0002062  39.0581 201.6248 15.08834729 21614,6917.897,95.438,541.188,538.335,0.0
49420.0,STARLINK-3110,PAYLOAD,2022-03-26 14:00:01,15.08822151,0.000192,53.2146,231.9553,39.7615,224.0154,-0.0011718,-0.0001888,0.0,0 STARLINK-3110,1 49420U 21104N   22085.58334491 -.00018880  00000-0 -11718-2 0  9998,2 49420  53.2146 231.9553 0001920  39.7615 224.0154 15.08822151 21715,6917.935,95.439,541.128,538.472,0.0
49420.0,STARLINK-3110,PAYLOAD,2022-03-26 22:00:00,15.08810563,0.0002041,53.2145,230.4596,35.6131,239.7286,0.0014802,0.00023329,0.0,0 STARLINK-3110,1 49420U 21104N   22085.91667824  .00023329  00000-0  14802-2 0  9993,2 49420  53.2145 230.4596 0002041  35.6131 239.7286 15.08810563  3597,6917.97,95.439,541.247,538.423,0.0
49420.0,STARLINK-3110,PAYLOAD,2022-03-27 06:00:00,15.08802896,0.0001885,53.2148,228.9613,40.0827,246.8414,0.0032891999999999,0.00052396,0.0,0 STARLINK-3110,1 49420U 21104N   22086.25001157  .00052396  00000-0  32892-2 0  9997,2 49420  53.2148 228.9613 0001885  40.0827 246.8414 15.08802896 21816,6917.994000000002,95.44,541.163,538.555,0.0
49420.0,STARLINK-3110,PAYLOAD,2022-03-27 14:00:01,15.08849802,0.0002031,53.215,227.466,39.5274,258.9717,-0.00095955,-0.00015531,0.0,0 STARLINK-3110,1 49420U 21104N   22086.58334491 -.00015531  00000-0 -95955-3 0  9995,2 49420  53.2150 227.4660 0002031  39.5274 258.9717 15.08849802  3603,6917.85,95.437,541.12,538.31,0.0
49420.0,STARLINK-3110,PAYLOAD,2022-03-27 22:00:01,15.08851505,0.0002126,53.2149,225.97,35.6369,274.5289,0.0012858,0.00020241,0.0,0 STARLINK-3110,1 49420U 21104N   22086.91668981  .00020241  00000-0  12858-2 0  9998,2 49420  53.2149 225.9700 0002126  35.6369 274.5289 15.08851505 21911,6917.845,95.437,541.181,538.239,0.0
49420.0,STARLINK-3110,PAYLOAD,2022-03-28 14:00:01,15.08865175,0.0002008,53.2155,222.9766,36.3135,297.0943,-0.0011867,-0.00019138,0.0,0 STARLINK-3110,1 49420U 21104N   22087.58335648 -.00019138  00000-0 -11867-2 0  9997,2 49420  53.2155 222.9766 0002008  36.3135 297.0943 15.08865175  3561,6917.803000000001,95.436,541.058,538.279,0.0
49420.0,STARLINK-3110,PAYLOAD,2022-03-28 22:00:00,15.08870669,0.0002077,53.2154,221.4804,32.3698,312.5905,-0.0037061,-0.0005884,0.0,0 STARLINK-3110,1 49420U 21104N   22087.91667824 -.00058840  00000-0 -37061-2 0  9995,2 49420  53.2154 221.4804 0002077  32.3698 312.5905 15.08870669 22064,6917.7869999999975,95.436,541.0880000000002,538.215,0.0
49420.0,STARLINK-3110,PAYLOAD,2022-03-29 14:00:01,15.08842248,0.0002063,53.216,218.4875,36.2101,331.9269,-0.0014123,-0.00022697,0.0,0 STARLINK-3110,1 49420U 21104N   22088.58334491 -.00022697  00000-0 -14123-2 0  9995,2 49420  53.2160 218.4875 0002063  36.2101 331.9269 15.08842248 22163,6917.874,95.437,541.1659999999998,538.311,0.0
49420.0,STARLINK-3110,PAYLOAD,2022-03-29 22:00:00,15.08836961,0.0002085,53.2158,216.9911,32.1131,347.6121,-0.0012275,-0.0001977,0.0,0 STARLINK-3110,1 49420U 21104N   22088.91667824 -.00019770  00000-0 -12275-2 0  9995,2 49420  53.2158 216.9911 0002085  32.1131 347.6121 15.08836961  3576,6917.89,95.438,541.197,538.312,0.0
49420.0,STARLINK-3110,PAYLOAD,2022-03-30 12:00:00,15.08850299,0.0001967,53.2164,214.3721,35.6238,274.3619,-0.00077775,-0.00012648,0.0,0 STARLINK-3110,1 49420U 21104N   22089.50001157 -.00012648  00000-0 -77775-3 0  9996,2 49420  53.2164 214.3721 0001967  35.6238 274.3619 15.08850299 22308,6917.849,95.437,541.075,538.3530000000002,0.0
49420.0,STARLINK-3110,PAYLOAD,2022-03-30 14:00:01,15.08851296,0.0002058,53.2162,213.9985,34.7492,8.2002,-0.0008921,-0.00014463,0.0,0 STARLINK-3110,1 49420U 21104N   22089.58335648 -.00014463  00000-0 -89210-3 0  9993,2 49420  53.2162 213.9985 0002058  34.7492   8.2002 15.08851296  3573,6917.846,95.437,541.135,538.2869999999998,0.0
49420.0,STARLINK-3110,PAYLOAD,2022-03-30 22:00:00,15.08856448,0.0002133,53.2158,212.5021,33.34,21.1469,-0.002053,-0.00032829,0.0,0 STARLINK-3110,1 49420U 21104N   22089.91667824 -.00032829  00000-0 -20530-2 0  9999,2 49420  53.2158 212.5021 0002133  33.3400  21.1469 15.08856448  3623,6917.83,95.437,541.1709999999998,538.22,0.0
49420.0,STARLINK-3110,PAYLOAD,2022-03-31 14:00:01,15.0883062,0.0002098,53.2161,209.5097,35.2848,42.3806,-0.00037383,-6.231e-05,0.0,0 STARLINK-3110,1 49420U 21104N   22090.58334491 -.00006231  00000-0 -37383-3 0  9998,2 49420  53.2161 209.5097 0002098  35.2848  42.3806 15.08830620 22471,6917.909000000002,95.438,541.225,538.323,0.0
49420.0,STARLINK-3110,PAYLOAD,2022-03-31 22:00:00,15.08876365,0.0002164,53.2157,208.013,34.1922,55.0702,-0.0019861,-0.0003179,0.0,0 STARLINK-3110,1 49420U 21104N   22090.91667824 -.00031790  00000-0 -19861-2 0  9992,2 49420  53.2157 208.0130 0002164  34.1922  55.0702 15.08876365 22521,6917.769,95.435,541.131,538.137,0.0
49420.0,STARLINK-3110,PAYLOAD,2022-04-01 14:00:01,15.08881005,0.00022,53.2158,205.0208,36.5179,75.9767,-0.0036444,-0.0005788999999999,0.0,0 STARLINK-3110,1 49420U 21104N   22091.58334491 -.00057890  00000-0 -36444-2 0  9992,2 49420  53.2158 205.0208 0002200  36.5179  75.9767 15.08881005 22626,6917.755,95.435,541.1419999999998,538.0980000000002,0.0
49420.0,STARLINK-3110,PAYLOAD,2022-04-01 22:00:00,15.08876511,0.0002212,53.2155,203.5239,33.633,90.4836,-0.0054213,-0.00085633,0.0,0 STARLINK-3110,1 49420U 21104N   22091.91667824 -.00085633  00000-0 -54213-2 0  9998,2 49420  53.2155 203.5239 0002212  33.6330  90.4836 15.08876511  3589,6917.769,95.435,541.164,538.104,0.0
49420.0,STARLINK-3110,PAYLOAD,2022-04-02 06:00:00,15.0879213,0.0002143,53.2157,202.0262,39.5348,96.191,0.003632,0.00057915,0.0,0 STARLINK-3110,1 49420U 21104N   22092.25001157  .00057915  00000-0  36320-2 0  9996,2 49420  53.2157 202.0262 0002143  39.5348  96.1910 15.08792130 22725,6918.026999999999,95.441,541.374,538.409,0.0
49420.0,STARLINK-3110,PAYLOAD,2022-04-02 22:00:01,15.08857497,0.0002173,53.2156,199.0348,32.8434,126.0868,-0.0065071,-0.00102433,0.0,0 STARLINK-3110,1 49420U 21104N   22092.91668981 -.00102433  00000-0 -65071-2 0  9996,2 49420  53.2156 199.0348 0002173  32.8434 126.0868 15.08857497 22823,6917.8269999999975,95.436,541.195,538.189,0.0
49420.0,STARLINK-3110,PAYLOAD,2022-04-03 06:00:00,15.08773322,0.0002002,53.2158,197.5374,33.6989,136.7433,0.0031819,0.00050624,0.0,0 STARLINK-3110,1 49420U 21104N   22093.25001157  .00050624  00000-0  31819-2 0  9995,2 49420  53.2158 197.5374 0002002  33.6989 136.7433 15.08773322 22877,6918.084,95.442,541.3340000000002,538.564,0.0
49420.0,STARLINK-3110,PAYLOAD,2022-04-03 22:00:00,15.088123199999998,0.0002149,53.2157,194.546,28.3279,165.1908,-0.0019386,-0.00030986,0.0,0 STARLINK-3110,1 49420U 21104N   22093.91667824 -.00030986  00000-0 -19386-2 0  9993,2 49420  53.2157 194.5460 0002149  28.3279 165.1908 15.08812320 22970,6917.965,95.439,541.317,538.3430000000002,0.0
49420.0,STARLINK-3110,PAYLOAD,2022-04-04 14:00:01,15.08812227,0.0002269,53.2159,191.5541,29.3406,187.2857,0.0013655,0.00021495,0.0,0 STARLINK-3110,1 49420U 21104N   22094.58334491  .00021495  00000-0  13655-2 0  9994,2 49420  53.2159 191.5541 0002269  29.3406 187.2857 15.08812227 23071,6917.965,95.439,541.4,538.261,0.0
49420.0,STARLINK-3110,PAYLOAD,2022-04-04 22:00:00,15.0885927,0.0002214,53.2158,190.057,28.7273,199.478,-0.00058121,-9.532e-05,0.0,0 STARLINK-3110,1 49420U 21104N   22094.91667824 -.00009532  00000-0 -58121-3 0  9998,2 49420  53.2158 190.0570 0002214  28.7273 199.4780 15.08859270  3607,6917.821,95.436,541.2180000000002,538.155,0.0
49420.0,STARLINK-3110,PAYLOAD,2022-04-05 14:00:01,15.08874751,0.0002287,53.2159,187.0649,29.4287,222.0673,-0.0024839,-0.00039642,0.0,0 STARLINK-3110,1 49420U 21104N   22095.58335648 -.00039642  00000-0 -24839-2 0  9991,2 49420  53.2159 187.0649 0002287  29.4287 222.0673 15.08874751  3564,6917.774,95.435,541.221,538.057,0.0
49420.0,STARLINK-3110,PAYLOAD,2022-04-05 16:00:00,15.08858282,0.000231,53.2159,186.6911,28.6743,315.6707,-0.0011919,-0.00019218,0.0,0 STARLINK-3110,1 49420U 21104N   22095.66667824 -.00019218  00000-0 -11919-2 0  9996,2 49420  53.2159 186.6911 0002310  28.6743 315.6707 15.08858282 23230,6917.825,95.436,541.288,538.091,0.0
49420.0,STARLINK-3110,PAYLOAD,2022-04-05 22:00:00,15.08854707,0.0002231,53.2157,185.5676,29.521,233.5319,-0.0029978,-0.00047704,0.0,0 STARLINK-3110,1 49420U 21104N   22095.91667824 -.00047704  00000-0 -29978-2 0  9999,2 49420  53.2157 185.5676 0002231  29.5210 233.5319 15.08854707  3610,6917.835,95.437,541.244,538.1569999999998,0.0
